,X,Y,OBJECTID,LICENSEE,LICENSE_NUM,DBA,OTP_CA10,ADDRESS,CITY,STATE,PROGRAM_ZIP,PHONE_NUMBER,CAPACITY,OPERATING_HOURS,DISPENSING_HOURS,WEEKEND_HOURS,WEEKEND_DISPENSING_HOURS,PROGRAM_DIRECTOR,MEDICAL_DIRECTOR,LATITUDE,LONGITUDE,COUNTYNAME
0,-121.8841515,37.716219,1,"California Forensic Medical Group, Inc ", 01-100 ,,249M,5325 Broder Boulevard,Dublin,CA,94568,(925) 551-6700,120,7:00am - 4am,1:00am - 7:30am ,1:00am - 7:30am,1:00am - 7:30am,Lisa Goodspeed,"Kelly-Ann Kelly, M.D.",37.71592647,-121.8841513,Alameda County
1,-122.102244,37.687185,2,"Humanistic Alternatives to Addiction Research and Treatment, Inc.", 01-94 ,,309M,20094 Mission Boulevard,Hayward,CA,94541,(510) 727-9755,400,5:30am - 2:00pm,6:00am - 9:00am; 10:00 - 12:00pm ,7:00am - 10:00am,7:30am - 9:30am,"Christopher Sobky, MFT","Mikael Martinez, M.D.",37.687185,-122.102244,Alameda County
2,-122.248314,37.79118,3,"Addiction Research and Treatment, Inc.", 01-96 ,BAART Programs Oakland,186M,1124 International Boulevard,Oakland,CA,94606,(510) 533-0800,650,6:00am - 2:00pm,6:00am - 1:00pm; Thurs 6:00am - 12:00pm,6:45am - 10:45am,7:00am - 10:30am,Lisa Fitzpatrick,"Ian Johnson, M.D.",37.79102183,-122.2484548,Alameda County
3,-122.248314,37.79118,4,"BAART Behavioral Health Services, Inc.", 01-97 ,BAART Programs Oakland,186M,1124 International Boulevard,Oakland,CA,94606,(510) 533-0800,50,6am - 2pm,6:00am - 1:00pm; Thurs 6:00am - 12:00pm,6:45am - 10:45am,7:00am - 10:30am,Lisa Fitzpatrick,"Ian Johnson, M.D.",37.79102183,-122.2484548,Alameda County
4,-122.080329,37.665423,5,"Successful Alternatives For Addiction & Counseling Services, Inc.", 01-98 ,MedMark Treatment Centers - Hayward,304M,795 Fletcher Lane,Hayward,CA,94544,(510) 247-8300,365,5am - 1:30pm,5:00am - 1:00pm,8:00am - 10:30am,8:00am - 10:30am,Serena Urive,"Gilbert Greene, D.O.",37.6655209,-122.0804947,Alameda County
5,-122.167134,37.739286,6,"Lifeline Treatment Services, Inc.", 01-99 ,,354M,10429 International Boulevard,Oakland,CA,94603,(510) 777-8448,375,6am - 2:30pm (Lunch 10-10:30am),6:00am - 10:00am; 10:30am - 1:30pm,8:00am - 11:15am,8:00am - 11:15am,Evelyn Nelson,"Michael Yadegari, M.D.",37.739286,-122.167134,Alameda County
6,-120.7805806,38.35584232,7,"Gold Country Health Initiative, LLC", 03-01,,403M,820 & 830 State Highway 88,Jackson,CA,95642,(209) 257-1501,100,7:00am - 3:30pm (Lunch 11am-11:30am),7:15am - 11:00; 11:30am - 3:30pm,Closed Saturday & Sunday,Closed Saturday & Sunday,Mary Anne Laramee,"Ernest J. Vasti, M.D.",38.35584232,-120.7805806,Amador County
7,-121.847472,39.754575,8,"Aegis Treatment Centers, LLC", 04-02 ,,297M,"582, 584, 586, 588 & 590 Rio Lindo Ave",Chico,CA,95926,(530) 345-3491,625,5am - 3:30pm,5:00am - 1:00pm,6:00am - 9:30am,6:00am - 9:30am,Esperanza Hernandez,"Michael Waring, M.D.",39.754575,-121.847472,Butte County
8,-121.8037275,37.98441,9,"Addiction Research and Treatment, Inc.", 07-07 ,BAART Programs Antioch,138M,"3707 and 3711 Sunset Lane, Suites A & B",Antioch,CA,94509,(925) 522-0124,1000,5:30am - 2:30pm,5:30am - 1:30pm,7:00am - 10:30am,7:00am - 10:30am,Ulrika Williams,"William Quismoro, M.D.",37.98437295,-121.804199,Contra Costa County
9,-121.803822,37.984536,10,"BAART Behavioral Health Services, Inc.", 07-07D ,BAART Programs Antioch,245M,3707 Sunset Lane,Antioch,CA,94509,(925) 522-0124,20,5:30am - 2:30pm,5:30am - 1:30pm,7:00am - 10:30am,7:00am - 10:30am,Ulrika Williams,"William Quismoro, M.D.",37.98450557,-121.8042089,Contra Costa County
10,-122.3565435,37.925451,11,"Addiction Research and Treatment, Inc.", 07-08 ,BAART Program Richmond,095M,1301 and 1313 Cutting Boulevard,Richmond,CA,94804,(510) 232-0874,500,6am - 2pm,6:00am - 1:00pm,6:45am - 10:45am,7:00am - 10:00am,Ulrika Williams,"Kyle Moore, M.D.",37.92524053,-122.3565435,Contra Costa County
11,-122.2789792,37.85366016,12,Berkeley Addiction Treatment Services, 01-90 ,,093M,2975 Sacramento Street,Berkeley,CA,94702,(510) 644-0200,255,5:30am - 12:45pm,5:30am - 10:30am ,5:30am - 9:00am,5:30am - 9:00am,Matonia Williams,"Frank Staggers, M.D.",37.85366016,-122.2789792,Alameda County
12,-122.3565435,37.925451,13,"BAART Behavioral Health Services, Inc.", 07-08D ,BAART Program Richmond,244M,1301 and 1313 Cutting Boulevard,Richmond,CA,94804,(510) 232-0874,20,6am - 2pm,6:00am - 1:00pm,6:45am - 10:45am,7:00am - 10:00am,Ulrika Williams,"Kyle Moore, M.D.",37.92524053,-122.3565435,Contra Costa County
13,-122.2874865,37.804203,14,The West Oakland Health Council, 01-60 ,,111M,"700 Adeline Street, Suites 270 & 290",Oakland,CA,94607,(510) 302-3741,110,7:30am - 4:30pm,7:45 am - 11:45 am,7:30am - 11:30am,7:45am - 9:45am,"Nicole Sudduth, LCSW","Michael Rosenfield, D.O.",37.804203,-122.2874865,Alameda County
14,-122.1497235,37.74159,15,"Humanistic Alternatives to Addiction Research and Treatment, Inc.", 01-70 ,,038M,"10850 MacArthur Boulevard, Suite 200",Oakland,CA,94605,(510) 875-2300,500,6:00am - 2:00pm,6:00am - 8:00am; 9:00am - 12:00pm ,7:30am - 10:00am,7:30am - 10:00am,Michelle Burch,"Martin Mennen, M.D.",37.741417,-122.1498028,Alameda County
15,-122.0426656,37.98984147,16,"Addiction Research and Treatment, Inc.", 07-10,BAART Programs Concord,412M,2158 Solano Way,Concord,CA,94520,(925) 690-5710,300,5:30am - 2:00pm,5:30am - 1:00pm,7:00am - 10:00am,7:00am - 10:00am,Nadine Robbins-Laurent,"William Quismoro, M.D.",37.98984147,-122.0426656,Contra Costa County
16,-119.7993825,36.732429,17,"Addiction Research and Treatment, Inc.", 10-02 ,BAART Programs E Street,141M,1235 E Street,Fresno,CA,93706,(559) 268-6261,700,5:30am - 1:30 pm,5:30am - 11am; Th 5:30am-1pm,6:00am - 9:00am,6:00am - 9:00am,Fauna Acker,"Laurene Spencer, M.D.",36.73263033,-119.7991942,Fresno County
17,-119.7993825,36.732429,18,"BAART Behavioral Health Services, Inc.", 10-02D ,BAART BBHS Programs E Street,216M,1235 E Street,Fresno,CA,93706,(559) 268-6261,25,5:30am - 1:30 pm,5:30am - 11am; Th 5:30am-11am; 12pm - 1pm,6:00am - 9:00am,6:00am - 9:00am,Fauna Acker,"Laurene Spencer, M.D.",36.73263033,-119.7991942,Fresno County
18,-119.799306,36.751194,19,"Addiction Research and Treatment, Inc.", 10-01 ,BAART Programs Van Ness,005M,539 North Van Ness Avenue,Fresno,CA,93728,(559) 266-9581,700,6am - 2pm,6:00am - 1:30pm,6:00am - 10:00am,6:00am - 10:00am,Sara Castillo,"Farhad Mahjouri, M.D.",36.751194,-119.7989285,Fresno County
19,-119.799306,36.751194,20,"BAART Behavioral Health Services, Inc.", 10-01D ,BAART Programs Van Ness,218M,539 North Van Ness Avenue,Fresno,CA,93728,(559) 266-9581,20,6am - 2pm,6:00am - 1:30pm,6:00am - 10:00am,6:00am - 10:00am,Sara Castillo,"Farhad Mahjouri, M.D.",36.751194,-119.7989285,Fresno County
20,-119.734416,36.67599,21,"Addiction Research and Treatment, Inc.", 10-04 ,BAART Programs Cartwright,307M,3103 East Cartwright Avenue,Fresno,CA,93725,(559) 498-7100,225,5:00am - 1:00pm,5:00am - 9:30am; 10:30am - 12:30 pm,6:00am - 9:00am; Closed Sunday,6:00am - 9:00am; Closed Sunday,Jennifer Amity Berool,"Laurene Spencer, M.D.",36.676162,-119.7344779,Fresno County
21,-119.790288,36.739557,22,"MedMark Treatment Centers - Fresno West, Inc.", 10-06 ,MedMark Treatment Centers Fresno,362M,1310 M Street,Fresno,CA,93721,(559) 264-2700,630,5:00am - 1:30pm,5:00am - 1:00pm,6:00am - 10:00am,6:00am - 10:00am,Bee Vue,"Gilbert Greene, D.O.",36.73928425,-119.7905394,Fresno County
22,-119.763189,36.779877,23,"Aegis Treatment Centers, LLC", 10-07 ,,223M,3707  E. Shields Avenue,Fresno,CA,93726,(559) 229-9040,560,5:00am - 6:30pm,5:00am-9:00am; 10:00am-1:00pm; 2:00-5:30pm,Sat 6:00am - 2:30pm; Sun 6:00am - 10:00am,Sat 6:00am - 1:30pm; Sun 6:00am - 10:00am,Tiffany Martinez,"Marc Lasher, M.D.",36.7796895,-119.763189,Fresno County
23,-119.734416,36.67599,24,"BAART Behavioral Health Services, Inc.", 10-04D ,BAART Programs Cartwright,308M,3103 East Cartwright Avenue,Fresno,CA,93725,(559) 498-7100,10,5:00am - 1:00pm,5:00am - 9:30am; 10:30am - 12:30 pm,6:00am - 9:00am; Closed Sunday,6:00am - 9:00am; Closed Sunday,Jennifer Amity Berool,"Laurene Spencer, M.D.",36.676162,-119.7344779,Fresno County
24,-124.148979,40.80744,25,"Aegis Treatment Centers, LLC", 12-01 ,,409M,2107 1st Street,Eureka,CA,95501,(707)273-6398,350,6:00am - 2:30pm,6:00am - 10am;11:00am - 1:30pm,7:00am - 10:00am,7:00am - 10:00am,Sarah Vogel,"Nancy Brockington, M.D.",40.80717748,-124.148979,Humboldt County
25,-115.5022091,32.67021133,26,"Imperial Valley Medical Clinic, Inc.", 13-02 ,,140M,535 West Cesar Chavez Boulevard,Calexico,CA,92231,(760) 357-6566,120,6:00am - 3:00pm,6:00am - 11:00am,Closed,6:00am - 9:00am; Closed Sunday,"Norma M. Apodaca, MSW","Lucian Oprea, M.D.",32.67021133,-115.5022091,Imperial County
26,-122.040864,37.916928,27,Harmonic Solutions, 07-09,,410M,"1776 Ygnacio Valley Road, #206",Walnut Creek,CA,94598,(925) 278-1792,150,5am - 11am; Th 12-2pm,5:00am - 11:00am,6:00am - 8:00am,6:00am - 8:00am,Jodi Klopf,"Kulraj Sidhu, M.D.",37.91651678,-122.0403777,Contra Costa County
27,-119.244441,35.76952756,28,"Aegis Treatment Centers, LLC", 15-06 ,,303M,1019 Jefferson Street,Delano,CA,93215,(661) 721-0463,120,5:30am - 2:00pm,5:30am-9:30am; 10:30am-1:00pm,8:00am - 9:00am; Closed Sunday,8:00am - 9:00am; Closed Sunday,Graciela Salazar,"Howard Morley, M.D.",35.76952756,-119.244441,Kern County
28,-119.013246,35.378307,29,"Aegis Treatment Centers, LLC", 15-05 ,,272M,1018 21st Street,Bakersfield,CA,93301,(661) 861-9967,750,5:00am - 3:00pm,5:00am - 2:30pm,6:00am - 10:00am; 11:00am - 2:30pm,6:00am - 10:00am; 11:00am - 1:30pm,Laura Love,"George Girgis, M.D.",35.37813433,-119.0132474,Kern County
29,-115.5550005,32.791491,30,"Imperial Valley Medical Clinic, Inc.", 13-04 ,Medical Treatment Center,343M,200 South 5th Street,El Centro,CA,92243,(760) 482-0864,380,6:00am - 3:00pm,6:00am - 11:00am; 12:00pm - 2:00pm,Closed,6:00am - 9:00am,"Norma M. Apodaca, MSW","Lucian Oprea, M.D.",32.791491,-115.5547532,Imperial County
30,-119.0080215,35.397783,31,"Aegis Treatment Centers, LLC", 15-07 ,,381M,501 W. Columbus Street and 4050 San Dimas Street,Bakersfield,CA,93301,(661) 328-0245,475,5:00am - 3:00pm,5:00am - 9:00am; 10:00am- 2:30pm ,6:00am - 2:30pm; Closed Sunday,6:00am - 1:30pm; Closed Sunday,Chrystal McIntire,"George Girgis, M.D.",35.397783,-119.0080215,Kern County
31,-119.0028897,35.34385208,32,American Health Services LLC, 15-04 ,,329M,1010 1/2 South Union Avenue,Bakersfield,CA,93307,(661) 321-0234,500,5:30am - 2:00pm,5:30am - 1:00pm,7:00am - 11:00am,7:00am - 11:00am,Stacy Knox,"Michael Yadegari, M.D.",35.34385208,-119.0028897,Kern County
32,-118.2630751,34.13473459,33,Western Pacific Med-Corp., 19-012 ,,161M,"4544 San Fernando Road,  Suite 201",Glendale,CA,91204,(818) 240-8843,325,5:45am - 2:30pm,5:45am - 1:00pm,5:45am - 9:45am,5:45am - 9:30am,Shirley Poorawood,"David Sami, M.D.",34.13473459,-118.2630751,Los Angeles County
33,-117.692892,35.651358,34,"Aegis Treatment Centers, LLC - Medication Unit",15-07MU1,,381M,"1111 West Inyokern Road, Suite B",Ridgecrest,CA,93555,(760)301-6945,75,7:00am - 11:00am,7:00am - 11:00am,7:00am - 11:00am; Closed Sunday,7:00am - 11:00am; Closed Sunday,Chrystal McIntire,"George Girgis, M.D.",35.65169051,-117.6928823,Kern County
34,-118.2872087,33.77869356,35,Western Health Community Clinics, 19-035 ,,183M,1647 West Anaheim Street,Harbor City,CA,90710,(310) 534-5590,110,5:30am - 11:00am,5:30am - 11:00am,7:00am - 9:00am,7:00am - 9:00am,Sivan Sharma Wilson,"Dennis Sanchez, M.D.",33.77869356,-118.2872087,Los Angeles County
35,-118.1936505,33.85423201,36,West County Medical Clinic, 19-037 ,,190M,100 East Market Street,Long Beach,CA,90805,(562) 428-4222,300,5:30am -9:30am; 10:00am-1:30pm ,5:30am -9:30am; 10:00am-12:30pm ,8:00am - 11:00am,8:00am - 11:00am,Maria Garcia,"Michael Yadegari, M.D.",33.85423201,-118.1936505,Los Angeles County
36,-118.157382,34.019172,37,"Narcotics Prevention Association, Inc.", 19-013 ,,180M,"942 South Atlantic Boulevard, Suite 100",Los Angeles,CA,90022,(323) 263-9700,450,5:00am - 5:00pm,5:00am - 5:00pm,6:00am - 10:00am,6:00am - 10:00am,Luis Montes,"Leonard P. Jones, M.D.",34.01924601,-118.157619,Los Angeles County
37,-118.3540005,33.945156,38,El Dorado Community Service Center, 19-042 ,,209M,4450 West Century Boulevard,Inglewood,CA,90304,(310) 671-0555,175,6:00am - 10:00am;11:00-2:30pm ,6:00am - 10:00am;11:00-1:30pm ,8:30am - 9:30am,8:30am - 9:30am,Brenda Jordan,"Michael Yadegari, M.D.",33.945156,-118.3540005,Los Angeles County
38,-118.260963,33.771429,39,"Transcultural Health Development, Inc.", 19-038 ,Coastal Recovery Center,197M,117 East Harry Bridges Boulevard,Wilmington,CA,90744,(310) 549-8383,300,5:30am -9:30am; 10:00am-1:30pm ,5:00am - 12:00pm: Thurs 5:00am - 11:30am,6:00am - 10:00am,Sat 6:00am - 10:00am; Sun 7:00am - 8:00am as needed,Andrea Adams,"Steven Ruh, M.D.",33.7713518,-118.2609602,Los Angeles County
39,-118.534392,34.202133,40,Western Pacific Med-Corp., 19-060 ,,191M,"7232 Canby Avenue, Suite 4, 5, & 6",Reseda,CA,91335,(818) 705-5561,375,5:45am - 2:30pm,5:45am - 1:00pm,5:45am - 9:45am,5:45am - 9:30am,Erica Tapia,"Daryoosh Sami, M.D.",34.2021273,-118.5347574,Los Angeles County
40,-118.450026,34.242318,41,Western Pacific Med-Corp., 19-088 ,,195M,9462 Van Nuys Boulevard,Panorama City,CA,91402,(818) 891-8555,325,5:45am - 2:30pm,5:45am - 12:30pm,5:45am - 9:45am,5:45am - 9:30am,Nancy Calzada,"Daryoosh Sami, M.D.",34.242318,-118.4502035,Los Angeles County
41,-118.09611,34.006941,42,Tavarua Health Services, 19-107 ,,235M,8207 Whittier Boulevard,Pico Rivera,CA,90660,(562) 695-0737,460,5:00am - 2:00pm,5:00am - 12:00pm,7:00am - 8:00am,7:00am - 8:00am,Michelle Murphy,"Michael Yadegari, M.D.",34.00671276,-118.0962061,Los Angeles County
42,-117.9526192,34.03787178,43,"Addiction Research and Treatment, Inc.", 19-112 ,BAART Programs La Puente,230M,15229 East Amar Road,La Puente,CA,91744,(626) 855-5090,450,5:30am - 2:00pm,5:30am - 1:30 pm,6:00am - 10:00am,6:00am - 10:00am,Marcelo Tejada,"Thomas Farnham, M.D.",34.03787178,-117.9526192,Los Angeles County
43,-117.9526192,34.03787178,44,"BAART Behavioral Health Services, Inc.", 19-112D ,BAART Programs La Puente,238M,15229 East Amar Road,La Puente,CA,91744,(626) 855-5090,25,5:30am - 2:00pm,5:30am - 1:30 pm,6:00am - 10:00am,6:00am - 10:00am,Marcelo Tejada,"Thomas Farnham, M.D.",34.03787178,-117.9526192,Los Angeles County
44,-118.0796715,33.901902,45,Western Pacific Med-Corp., 19-114 ,,233M,"11902 Rosecrans Boulevard, Suites A & D",Norwalk,CA,90650,(562) 929-7188,275,5:00am - 1:45pm,5:00am - 9:45am; 10:30am - 12:00pm,5:00am - 9:00am,5:00am - 8:30am,Mona Taylor,"Raaga Iskarous, M.D.",33.901902,-118.0796715,Los Angeles County
45,-118.264824,33.99813,46,"BAART Behavioral Health Services, Inc.", 19-048D ,BAART Programs Southeast,221M,4920 South Avalon Boulevard,Los Angeles,CA,90011,(323) 235-5035,25,5:30am - 2:00pm ,5:30am - 1:30pm ,6:30am - 10:30am,6:30am - 10:30am,Mahshid M. Reaves,"David De la Loza, M.D.",33.99813,-118.2652125,Los Angeles County
46,-118.264824,33.99813,47,"Addiction Research and Treatment, Inc.", 19-048 ,BAART Programs Southeast,199M,4920 South Avalon Boulevard,Los Angeles,CA,90011,(323) 235-5035,525,5:30am - 2:00pm ,5:30am - 1:30pm ,6:30am - 10:30am,6:30am - 10:30am,Mahshid M. Reaves,"David  De La Loza, M.D.",33.99813,-118.2652125,Los Angeles County
47,-118.450026,34.242318,48,Western Pacific RE-HAB, 19-121 ,,260M,9462 Van Nuys Boulevard,Panorama,CA,91402,(818) 891-8555,130,5:45am - 2:30pm,5:45am - 1:00pm,5:45am - 9:45am,5:45am - 9:30am,Nancy Calzada,"Daryoosh Sami, M.D.",34.242318,-118.4502035,Los Angeles County
48,-118.1383725,34.7068542,49,Western Pacific Med-Corp., 19-116 ,,240M,45335 Sierra Highway,Lancaster,CA,93534,(661) 949-8599,350,5:45 - 2:30pm,5:45am - 1:00pm,5:45am - 9:45am,5:45am - 9:30am,Rachel Revai,"Sambiz Amini, M.D.",34.7068542,-118.1383725,Los Angeles County
49,-118.1383725,34.7068542,50,Western Pacific RE-HAB, 19-122 ,,261M,45335 Sierra Highway,Lancaster,CA,93534,(661) 949-8599,120,5:45 - 2:30pm,5:45am - 1:00pm,5:45am - 9:45am,5:45am - 9:30am,Rachel Revai,"Sambiz Amini, M.D.",34.7068542,-118.1383725,Los Angeles County
50,-118.534392,34.202133,51,Western Pacific RE-HAB, 19-123 ,,262M,"7232 Canby Avenue, Suite 4, 5, & 6",Reseda,CA,91335,(818) 705-5561,80,5:45am - 2:30pm,5:45am - 1:00pm,5:45am - 9:45am,5:45am - 9:30am,Erica Tapia,"Daryoosh Sami, M.D.",34.2021273,-118.5347574,Los Angeles County
51,-118.0796715,33.901902,52,Western Pacific RE-HAB, 19-124 ,,259M,"11902 Rosecrans Boulevard, Suites A & D",Norwalk,CA,90650,(562) 929-7188,80,5:00am - 1:45pm,5:00am - 12:00pm,5:00am - 9:00am,5:00am - 8:30am,Mona Taylor,"Raaga Iskarous, M.D.",33.901902,-118.0796715,Los Angeles County
52,-118.2630751,34.13473459,53,Western Pacific RE-HAB, 19-125 ,,258M,"4544 San Fernando Road, Suite 201",Glendale,CA,91204,(818) 240-8843,80,5:45am - 2:30pm,5:45am - 1:00pm,5:45am - 9:45am,5:45am - 9:30am,Shirley Poorawood,"Sambiz Amini, M.D.",34.13473459,-118.2630751,Los Angeles County
53,-117.8901507,34.11468,54,Tavarua Medical Rehabilitation Services, 19-126 ,,257M,474 S. Citrus Avenue,Azusa,CA,91702,(626) 858-9500,210,5:30am - 9:30am; 10:00am - 2:00pm,5:30am - 9:30am; 10:00am - 1:00pm,7:00am - 11:00am,7:00am - 9:00am,Phyllis Calderon,"Michael Yadegari, M.D.",34.11468,-117.8901507,Los Angeles County
54,-118.268559,34.065684,55,"Addiction Research and Treatment, Inc.", 19-115 ,BAART Programs Beverly,020M,1926 West Beverly Boulevard,Los Angeles,CA,90057,(213) 353-1140,850,5:30am - 1:30pm,5:30am - 10:00am; 11:00am -12:30pm ,7:00am - 11:00am,7:00am - 11:00am,Alfredo Morales,"David De la Loza, M.D.",34.06582096,-118.2684981,Los Angeles County
55,-118.193364,33.798537,56,West County Medical Corporation, 19-128 ,,255M,"2272 Pacific Avenue, Suite A",Long Beach,CA,90806,(562) 427-8018,325,6:00am - 10:00am; 11:00am - 2:30pm,6:00am - 10:00am; 11:00am - 1:30pm,6:00am - 8:00am,6:00am - 8:00am,Vanessa Romero,"Michael Yadegari, M.D.",33.798537,-118.1936405,Los Angeles County
56,-118.344618,33.894873,57,El Dorado Community Service Center, 19-136 ,,306M,4023 Marine Avenue,Lawndale,CA,90260,(310) 675-9555,250,6:00am - 10:00am; 11:00am - 2:30pm,6:00am - 10:00am; 11:00am - 1:30pm,7:00am - 11:00am,7:00am - 8:00am,Dennise Andrade,"Michael Yadegari, M.D.",33.89467946,-118.344618,Los Angeles County
57,-118.528953,34.3845683,58,El Dorado Community Service Center, 19-137 ,,305M,24625 Arch Street,Newhall,CA,91321,(661) 288-2644,200,5:30am - 9:30am,5:30am - 9:00am,7:30am - 8:30am; Closed Sunday,7:30am - 8:30am; Closed Sunday,Kristin Reynolds,"Michael Yadegari, M.D.",34.3845683,-118.528953,Los Angeles County
58,-118.268559,34.065684,59,"BAART Behavioral Health Services, Inc.", 19-115D ,BAART Programs Beverly,248M,1926 West Beverly Boulevard,Los Angeles,CA,90057,(213) 353-1140,30,5:30am - 1:30 pm,5:30am - 12:30pm,7:00am - 11:00am,7:00am - 11:00am,Alfredo Morales,"David De la Loza, M.D.",34.06582096,-118.2684981,Los Angeles County
59,-118.4455755,34.1865,60,Western Pacific Med-Corp., 19-138 ,,322M,14332 Victory Boulevard,Van Nuys,CA,91401,(818) 989-1996,275,5:45am - 2:30pm,5:45am - 9:30am; 10:15am - 1:00pm,5:45am - 9:45am,5:45am - 9:30am,Arthur Poordawood,"Daryoosh Sami, M.D.",34.18664551,-118.4455755,Los Angeles County
60,-118.396287,34.158789,61,Western Pacific Med-Corp., 19-139 ,,321M,4838 Laurel Canyon Boulevard,North Hollywood,CA,91607,(818) 506-4455,275,5:45am - 2:30pm,5:45am - 1:00pm,5:45am - 9:45am,5:45am - 9:30am,Kimberly Ann Millard,"Daryoosh Sami, M.D.",34.158789,-118.3964625,Los Angeles County
61,-118.346382,34.047945,62,American Health Services LLC, 19-140 ,,314M,5015 Pico Boulevard,Los Angeles,CA,90019,(323) 653-1677,150,6am - 10:00am; 11:00am - 2:30pm ,6am - 10:00am; 11:00am - 1:30pm ,8:30am - 9:30am,8:30am - 9:30am,Ramona Fluellen,"Michael Yadegari, M.D.",34.04781483,-118.3463897,Los Angeles County
62,-118.4667525,34.184385,63,American Health Services LLC, 19-143 ,,318M,"6265 Sepulveda Boulevard, Suite 9",Van Nuys,CA,91411,(818) 779-0555,250,5:30am - 9:00am; 10:00am - 2:00pm,5:30am - 9:00am; 10:00am - 1:00pm,7:00am - 11:00am,7:00am - 11:00am,Kristin Reynolds,"Michael Yadegari, M.D.",34.18437645,-118.466216,Los Angeles County
63,-118.4641425,33.999363,64,American Health Services LLC, 19-142 ,,315M,717 Lincoln Boulevard,Los Angeles,CA,90291,(310) 399-9883,200,5:00am - 1:30pm,5:00am - 12:30 pm,9:30am - 11:00am,9:30am - 11:00am,Vanessa Romero,"Michael Yadegari, M.D.",33.999363,-118.4641425,Los Angeles County
64,-118.1887155,33.917229,65,"Addiction Research and Treatment, Inc.", 19-147 ,BAART Programs Lynwood,205M,11682 Atlantic Avenue,Lynwood,CA,90262,(310) 537-5883,300,5:30am - 2:00pm,5:30am - 1:30pm,6:00am - 10:00am,6:00am - 10:00am,Robert Trevino,"Thomas Farnham, M.D.",33.91733738,-118.1889675,Los Angeles County
65,-118.1887155,33.917229,66,"BAART Behavioral Health Services, Inc.", 19-147D ,BAART Programs Lynwood,205M,11682 Atlantic Avenue,Lynwood,CA,90262,(310) 537-5883,15,5:30am - 2:00pm,5:30am - 1:30pm,6:00am - 10:00am,6:00am - 10:00am,Robert Trevino,"Thomas Farnham, M.D.",33.91733738,-118.1889675,Los Angeles County
66,-118.072323,33.834006,67,American Health Services LLC, 19-145 ,,326M,21505 Norwalk Boulevard,Hawaiian Gardens,CA,90716,(562) 916-7581,300,5am - 9:00am; 10:00am - 1:30pm,5am - 9:00am; 10:00am - 12:30pm,8:30am - 9:30am,8:30am - 9:30am,Mona Grimmitt,"Michael Yadegari, M.D.",33.834006,-118.072323,Los Angeles County
67,-118.0800675,34.579476,68,American Health Services LLC, 19-141 ,,316M,"2720 East Palmdale Boulevard, Suites 129, 130 & 131",Palmdale,CA,93550,(661) 947-3333,215,6:00am - 2:30pm,6:00am - 1:30pm,6:00am - 11:00am,6:00am - 10:00am,Brandie O'Brien,"Michael Yadegari, M.D.",34.58016516,-118.0800714,Los Angeles County
68,-118.539765,34.179471,69,"Tarzana Treatment Center, Inc.", 19-152 ,,294M,18646 Oxnard Street,Tarzana,CA,91356,(818) 996-1051,335,5:30am - 4:00pm,5:30am - 1:30pm,7:00am - 11:00am,7:00am - 11:00am,Jose Salazar,"E. Duane Carmalt, M.D.",34.17993611,-118.5397505,Los Angeles County
69,-118.400076,34.228206,70,"Narcotic Addiction Treatment Agency, Inc.", 19-150 ,BAART Programs Sun Valley,353M,8741 Laurel Canyon Boulevard,Sun Valley,CA,91352,(818) 768-5525,200,6:00am - 2:30 pm,6:00am - 2:00 pm,7:00am - 11:00am,7:00am - 11:00am,Lela Saenz,"Darrell Webb, M.D.",34.22836358,-118.3999266,Los Angeles County
70,-117.9068625,34.07751,71,"Aegis Treatment Centers, LLC", 19-153 ,,142M,1825 E. Thelborn Street,West Covina,CA,91791,(626) 915-3844,195,5:00am - 1:30pm,5:00am - 9:00am; 10:00am - 12:30pm,6:00am - 10:00am,6:00am - 10:00am; Closed Sunday,Jennifer Bozarth,"Daniel Radnia, M.D.",34.07732149,-117.9068625,Los Angeles County
71,-118.0836,33.99831,72,El Dorado  Community Service Center, 19-148 ,,346M,"5200 San Gabriel Place, Suites B & C",Pico Rivera,CA,90660,(562) 222-1331,300,5:30am - 2:00pm,5:30am - 1:00pm,8:30am - 9:30am,8:30am - 9:30am,Maria Garcia,"Michael Yadegari, M.D.",33.99841846,-118.0840198,Los Angeles County
72,-117.7517205,34.06842,73,"Aegis Treatment Centers, LLC", 19-155 ,,196M,1050 N. Garey Avenue,Pomona,CA,91767,(909) 623-6391,200,5:00am - 1:30pm,5:00am - 9:00am; 10:00am - 12:30pm,5:00am - 9:00am,5:00am - 9:00am,Jill Teagardin,"Claire Nelson, M.D.",34.06842,-117.7517205,Los Angeles County
73,-118.2629745,33.78951,74,"Aegis Treatment Centers, LLC", 19-157 ,,225M,1322 N. Avalon Boulevard,Wilmington,CA,90744,(310) 513-1300,275,5:00am - 6:30pm,5:00am-9:00am; 10:00am-12:30pm; 1:30pm-6:00pm,6:00am - 10:00am,6:00am - 10:00am,Penny Johnson,"Brian Talleur, M.D.",33.78949357,-118.2631662,Los Angeles County
74,-118.367262,33.961374,75,"Aegis Treatment Centers, LLC", 19-158 ,,200M,"614 West Manchester Boulevard, Suite 104",Inglewood,CA,90301,(310) 412-0879,170,5:00am - 1:30pm,5:00am - 9:00am; 10:00am - 12:30pm,6:30am - 10:30am,6:30am - 10:30am,Toni Jackson-Rainey,"Daniel Radnia, M.D.",33.96152948,-118.367262,Los Angeles County
75,-118.033767,34.074468,76,"Aegis Treatment Centers, LLC", 19-156 ,,213M,11041 E. Valley Boulevard,El Monte,CA,91731,(626) 442-4177,150,5:00am - 1:30pm,5:00am - 9:00am; 10:00am - 12:30pm,6:00am - 10:00am,6:00am - 10:00am,Anthony Ruiz,"Daniel Radnia, M.D.",34.074468,-118.033767,Los Angeles County
76,-118.21023,34.061994,77,"Addiction Research and Treatment, Inc", 19-161 ,BAART Programs Boyle Heights,279M,1701 Zonal  Avenue,Los Angeles,CA,90033,(323) 223-6298,350,24 hours/day,5:30am-1:00pm; 1:30pm-9pm; 9:30pm-5:00am,24 hours/7 days a week,5:30am-1:00pm; 1:30pm-9pm; 9:30pm-5:00am,Jamie Fernandez,"Thomas Farnham, M.D.",34.06188839,-118.2103116,Los Angeles County
77,-118.13175,34.171038,78,"Aegis Treatment Centers, LLC", 19-159 ,,277M,"1450 North Lake Avenue, Suite 150",Pasadena,CA,91104,(626) 794-1161,170,6:30 - 3:00pm,6:30am - 10:30am;11:30am - 2pm ,7:00am - 11:00am; Closed Sunday,7:00am - 11:00am; Closed Sunday,Liana Sinapyan,"Daniel Radnia, M.D.",34.17105703,-118.132131,Los Angeles County
78,-118.21023,34.061994,79,"BAART Behavioral Health Services, Inc.", 19-161D ,BAART Programs Boyle Heights,279M,1701 Zonal Avenue,Los Angeles,CA,90033,(323) 223-6298,25,24 hours/day,5:30am-1:00pm; 1:30pm-9pm; 9:30pm-5:00am,24 hours/7 days a week,5:30am-1:00pm; 1:30pm-9pm; 9:30pm-5:00am,Jamie Fernandez,"Thomas Farnham, M.D.",34.06188839,-118.2103116,Los Angeles County
79,-118.5905385,34.256952,80,"ALT Recovery Group 2, LLC", 19-164 ,,394M,"20946 Devonshire Street, Suite 100",Chatsworth,CA,91311,(818) 626-8053,150,5:00am - 12:45pm,5:00am - 11:00am ,7:00am - 9:00am; Closed Sunday,7:00am - 9:00am; Closed Sunday,Denise Vincioni,"Alexander Simopoulos, M.D.",34.256952,-118.5905385,Los Angeles County
80,-118.0283585,33.91701859,81,"Aegis Treatment Centers, LLC", 19-154,,206M,14240 and 14238 East Imperial Highway,La Mirada,CA,90638,(562) 946-1587,195,5:00am - 1:30pm,5:00am - 9:00am; 10:00am - 12:30pm,6:00am - 10:00am,6:00am - 10:00am; Closed Sunday,Elizabeth Quezada,"Daniel Radnia, M.D.",33.91701859,-118.0283585,Los Angeles County
81,-118.3040481,34.09805509,82,"Hollywood Medical Rehabilitation Care, Inc.", 19-163 ,,393M,5232 W. Sunset Blvd.,Los Angeles,CA,90027,(323) 660-0900,50,7:00am - 11:00am,7:00am - 11:00am,7:00am - 11:00am; Closed Sunday,7:00am - 9:00am; Closed Sunday,Denise Estrada,Faried Banimahd,34.09805509,-118.3040481,Los Angeles County
82,-122.521833,37.980162,83,Marin Treatment Center, 21-70 ,,075M,1466 Lincoln Avenue,San Rafael,CA,94901,(415) 457-3755,350,7:00am - 5:00pm ,7:00am - 10:00am; 10:30am - 1:30pm,7:45am - 10:30am; Closed Sunday,7:45am - 10:30am; Closed Sunday,Jonathan Fong,"Elyse Eisenberg, M.D.",37.97998229,-122.5220768,Marin County
83,-118.264851,33.924501,84,"Addiction Research and Treatment, Inc.", 19-165 ,MedMark Treatment Centers Los Angeles,351M,"11900 Avalon Boulevard, Suite 200 and 201",Los Angeles,CA,90061,(323) 242-0500,250,5:30am - 2:00pm,5:30am - 12:30pm,6:00am - 10:00am,6:00am - 10:00am,Louie Morales,"Jack Azad, M.D.",33.924501,-118.264851,Los Angeles County
84,-118.123956,34.578864,85,"Tarzana Treatment Center, Inc.", 19-166 ,,399M,320 East Palmdale Boulevard,Palmdale,CA,93550,(818) 996-1051,100,6:00am - 1:30pm,6:00am - 1:30pm,7:00am - 11:00am; Closed Sunday,7:00am - 11:00am; Closed Sunday,Jose Salazar,"E. Duane Carmalt, M.D.",34.578864,-118.123956,Los Angeles County
85,-123.2055585,39.151314,86,New Life Health Authority,23-02,"New Life, LLC",411M,280 E. Standley Street,Ukiah,CA,95482,(707) 466-0001,230,6:00am-2:00pm,6:00am-2:00pm,6:00am - 9:00am,6:00am - 9:00am,Noah Chutz,"Gregory Greenberg, M.D.",39.15104125,-123.2054733,Mendocino County
86,-121.6516545,36.671283,87,Valley Health Associates, 27-07 ,,281M,"427 Pajaro Street, Suite 4",Salinas,CA,93901,(831) 424-6655,130,6:30am - 3:30pm,6:30am - 11:00am; 12:30pm - 2:00pm,7:30am - 10:00am,7:30am - 10:00am,John Bokanovich,"Edgar Castellanos, M.D.",36.67129968,-121.6519558,Monterey County
87,-121.657059,36.660267,88,Community Human Services , 27-04 ,Off Main Clinic,202M,1083 South Main Street,Salinas,CA,93901,(831) 424-4828,285,6:00am - 2:30pm,6:00am - 11:00am,7:00am - 10:00am,7:00am - 10:00am,Jennifer Hazen,"Edgar Castellanos, M.D.",36.660267,-121.657059,Monterey County
88,-117.8370211,33.74580291,89,"California Treatment Services, LLC", 30-09 ,Recovery Solutions of Santa Ana,194M,2101 East 1st Street,Santa Ana,CA,92705,(714) 542-3581,705,5:00am - 3:00pm,5:00am - 1:00pm,6:15am - 9:15am; Closed Sunday,6:15am - 9:15am; Closed Sunday,Valerie Ortega,"Richard Bock, M.D.",33.74580291,-117.8370211,Orange County
89,-117.9845508,33.80631544,90,Western Pacific Med-Corp., 30-10 ,,201M,10751 Dale Avenue,Stanton,CA,90680,(714) 821-5311,500,5:30am - 2:15pm,5:30am - 12:30pm,5:30am - 9:30am,5:30am - 9:00am,Kimberly Johnson,"David Sami, M.D.",33.80631544,-117.9845508,Orange County
90,-117.921141,33.870141,91,Western Pacific Med-Corp., 30-11 ,,211M,218 East Commonwealth Avenue,Fullerton,CA,92832,(714) 992-4770,500,5:00am - 8:30am; 9:15am - 1:45pm,5:00am - 12:00pm,5:00am - 1:45pm,5:00am - 12:00pm,Jeffrey Carter,"David Sami, M.D.",33.87035616,-117.9211432,Orange County
91,-118.3547205,34.041276,92,CLARE | MATRIX, 19-131 ,Matrix Institute on Addictions,282M,"5220 West Washington Boulevard, Suites 101, 104, 200, 203, 206 - 208",Los Angeles,CA,90016,(323) 933-9186,400,5:00am - 11:00am; 12:00pm - 2:00pm ,5:00am - 11:00am; 12:00pm - 2:00pm ,7:00am - 10:00am,7:00am - 10:00am,"Stephen Rodgers, MA","Scott C. Fears, M.D., Ph.D.",34.041276,-118.3547205,Los Angeles County
92,-117.910737,33.652044,93,Western Pacific RE-HAB, 30-12 ,,264M,"275 Victoria Street, Suite 1H",Costa Mesa,CA,92627,(949) 629-2860,250,5:00am - 1:45pm,5:00am -12:00pm,5:00am - 9:00am,5:00am - 8:30am,Esperanza Hernandez,"David Sami, M.D.",33.6526045,-117.910737,Orange County
93,-117.921141,33.870141,94,Western Pacific RE-HAB, 30-13 ,,263M,218 East Commonwealth Avenue,Fullerton,CA,92832,(714) 992-4770,75,5:00am - 8:30am; 9:15am - 1:45pm,5:00am - 12:00pm,5:00am - 1:45pm,5:00am - 12:00pm,Jeffrey Carter,"David Sami, M.D.",33.87035616,-117.9211432,Orange County
94,-120.854709,38.703357,95,"Aegis Treatment Centers, LLC", 31-02MU1,,300M,"6390 Runnymeade Drive, Suite B",Placerville,CA,95667,(530) 291-5345,125,5am - 1:30pm,5am - 9am; 10am - 12:30pm,,,Deanna Meyer,"Michael Waring, M.D.",38.70430198,-120.8556344,El Dorado County
95,-117.6676965,33.563313,96,Western Pacific Med-Corp.,30-14,,406M,"26921 Crown Valley Parkway, Suite 200",Mission Viejo,CA,92691,(949) 334-8288,350,5:00am - 1:45 pm,5:00am - 12:30 pm,5:00am - 9:00am,5:00am - 8:30am,Heather Garcia,"David Sami, M.D.",33.563313,-117.6676965,Orange County
96,-121.273506,38.736603,97,"Aegis Treatment Centers, LLC", 31-02 ,,300M,"1133 Coloma Way, Suites A, B, & C",Roseville,CA,95661,(916) 774-6647,775,5:00am - 3:30pm,5:00am - 2:30pm,6:00am - 2:30pm; Closed Sunday,6:00am - 10:00am; 11:00am - 1:30pm,Deanna Meyer,"Michael Waring, M.D.",38.73639815,-121.2735027,Placer County
97,-117.3504581,34.00418624,98,"WCHS, Inc.", 33-05 ,Riverside Treatment Center,207M,1021 West La Cadena,Riverside,CA,92501,(951) 784-8010,580,5:00am - 2:00pm,5:00am - 9:30am; 10:30am - 1:00pm ,Sat 7:00am - 9:30am; Sun 7:00am - 8:00am,Sat 7:00am - 9:30am; Sun 7:00am - 8:00am,Tami Elkins,"Joseph Mott, M.D.",34.00418624,-117.3504581,Riverside County
98,-120.4961355,37.306467,99,"Aegis Treatment Centers, LLC", 24-02 ,,357M,"1343 W. Main Street, Suites A & B and 1349 W. Main Street",Merced,CA,95340,(209) 725-1060,430,5:00am - 1:30pm,5:00am - 1:00pm,6:00am - 9:00am,6:00am - 9:00am,Samantha Malough,"Marc Lasher, M.D.",37.30620431,-120.4962364,Merced County
99,-116.9660385,33.747282,100,"Evexia Health Services, LLC", 33-09 ,Evexia Health Services,392M,601 E. Florida Avenue,Hemet,CA,92543,(951) 391-1470,385,5:30am - 2:00pm,5:30am - 1:30pm,7:00am - 11:00am,7:00am - 11:00am,Evelyn Sosa,"Tommy Zaharakis, M.D.",33.747282,-116.9660385,Riverside County
100,-116.239857,33.70730314,101,Coachella Valley Treatment Center,33-11,,404M,"81709 Doctor Carreon Blvd., Suite B-1",Indio,CA,92201,(818)853-4539,100,7:00am - 11:00am,7:00am - 11:00am,7:00am - 8:00am,7:00am - 8:00am,Mariam Nikogosyan,"Dimple Agrawal, M.D.",33.70730314,-116.239857,Riverside County
101,-117.5607425,33.8710651,102,"Evexia Health Services, LLC", 33-10 ,,402M,109 E 111th St,Corona,CA,92879,(951) 427-3482,200,5:30am - 2:00pm,5:30am - 1:30 pm,8:00am - 10:00am,8:00am - 10:00am,Evelyn Sosa,"Tommy Zaharakis, M.D.",33.8710651,-117.5607425,Riverside County
102,-121.436775,38.494773,103,"Treatment Associates, Inc.", 34-08 ,Sacramento Treatment Clinic,341M,"7225 East Southgate Drive, Suite D",Sacramento,CA,95823,(916) 394-1000,550,5:00am - 12:30pm,5:00am - 12:30pm,7:00am - 10:00am; Closed Sunday,7:00am - 10:00am; Closed Sunday,Ashley Jameson,"Damandeep Baidwan, M.D.",38.494773,-121.436775,Sacramento County
103,-117.2044851,33.57064067,104,"WCHS, Inc.", 33-07 ,Temecula Valley Treatment Center,359M,"40700 California Oaks Road, Suites 201, 202, & 203",Murrieta,CA,92562,(951) 894-5072,525,5:00am - 1:30pm,5:00am - 12:00pm,7:00am - 9:30am; Closed Sunday,7:00am - 9:30am; Closed Sunday,Jay Herzog,"Paul Little, M.D.",33.57064067,-117.2044851,Riverside County
104,-116.5451895,33.841422,105,"WCHS, Inc.", 33-06 ,Desert Treatment Clinic,325M,"1330 North Indian Canyon Drive, Suites  A, B, C, & G",Palm Springs,CA,92262,(760) 322-9065,600,5:00am - 1:30pm,5:00am - 12:00pm ,6:00am - 9:00am; Closed Sunday,6:00am - 9:00am; Closed Sunday,Michael Courtois,"Joseph Mott, M.D.",33.841422,-116.5451895,Riverside County
105,-121.479849,38.572722,106,"C.O.R.E. MEDICAL CLINIC, INC.", 34-10 ,,193M,2100 Capitol Avenue,Sacramento,CA,95816,(916) 442-4985,800,6:00am - 2:30pm ,6:15am - 1:30pm; Thurs 6:15am - 1:00pm,7:00am - 10:00am; Closed Sunday,7:15am - 10:00am; Closed Sunday,"Garrett Stenson, MSW","Christine Bell, M.D.",38.572722,-121.479849,Sacramento County
106,-121.3293735,38.612529,107,"Bi-Valley Medical Clinic, Inc.", 34-13 ,BAART Programs Carmicheal,293M,6127 Fair Oaks Boulevard,Carmichael,CA,95608,(916) 974-8090,900,5:00am - 2:00pm; 3:00pm-8:00pm ,5:00am - 2:00pm; 3:00pm-8:00pm ,7:00am - 10:00am; 3:00pm - 5:00pm; Closed Sunday,7:00am - 10:00am; 3:00pm - 5:00pm; Closed Sunday,Lisa Fitzpatrick,"Ian Johnson, M.D.",38.612529,-121.3293735,Sacramento County
107,-121.3293735,38.612529,108,"BAART Behavioral Health Services, Inc.", 34-14 ,BAART Programs Carmicheal,293M,6127 Fair Oaks Boulevard,Carmichael,CA,95608,(916) 974-8090,10,5:00am - 2:00pm; 3:00pm-8:00pm ,5:00am - 2:00pm; 3:00pm-8:00pm ,7:00am - 10:00am; 3:00pm - 5:00pm; Closed Sunday,7:00am - 10:00am; 3:00pm - 5:00pm; Closed Sunday,Lisa Fitzpatrick,"Ian Johnson, M.D.",38.612529,-121.3293735,Sacramento County
108,-121.458573,38.638134,109,"Bi-Valley Medical Clinic, Inc.", 34-11 ,BAART Programs Norwood,274M,"310 Harris Avenue, Suite A, E, F, & G",Sacramento,CA,95838,(916) 649-6793,1200,5:00am - 2:00pm,5:15am - 1:30pm,7:00am - 10:00am,7:15am - 10:00am,Melissa Develey,"Khaled Aqeel, M.D.",38.638134,-121.458573,Sacramento County
109,-121.458573,38.638134,110,"BAART Behavioral Health Services, Inc.", 34-12 ,BAART Programs Norwood,274M,"310 Harris Avenue, Suite A, E, F, & G",Sacramento,CA,95838,(916) 649-6793,20,5:00am - 2:00pm,5:15am - 1:30pm,7:00am - 10:00am,7:15am - 10:00am,Melissa Develey,"Khaled Aqeel, M.D.",38.638134,-121.458573,Sacramento County
110,-117.288702,34.059402,111,"WCHS, Inc.", 36-05 ,Colton Clinical Services,036M,2275 East Cooley Drive,Colton,CA,92324,(909) 370-1777,650,5:00am - 2:30pm,5:00am - 2:00pm; Wed 5:00am - 11:00am; 1:00pm -2:00pm,7:00am - 10:00am,7:00am - 10:00am,Jessica Robles,"Steven Ruh, M.D.",34.059402,-117.288702,San Bernardino County
111,-117.652167,34.069095,112,"Aegis Treatment Centers, LLC", 36-11 ,,214M,"125 West ""F"" Street, Suite 101",Ontario,CA,91762,(909) 986-4550,470,5:00am - 6:30pm,5:00am - 12:30pm; 1:30pm - 5:30pm,5:00am - 9:00am,5:00am - 9:00am,Vincente Mozell,"Barry Solof, M.D.",34.06938954,-117.652167,San Bernardino County
112,-121.317885,38.583018,113,"Sunrise Health & Wellness, LLC", 34-15,,397M,"10089 Folsom Blvd, Suites A & C",Rancho Cordova,CA,95670,(916)366-6531,100,6:00am - 11:00am; 11:30am - 2:30pm,6:15am - 11:00am; 11:30am - 1:45pm,7:00am - 10:00am; Closed Sunday,7:00am - 10:00am; Closed Sunday,Mary Ann Laramee,"Ernest J. Vasti, M.D.",38.583018,-121.317885,Sacramento County
113,-121.4383725,38.494332,114,"MedMark Treatment Centers - Sacramento, Inc.", 34-09 ,MedMark Treatment Centers - Sacramento,340M,"7240 East Southgate Drive, Suites B, E, F & G",Sacramento,CA,95823,(916) 391-4293,630,4:30am - 1:30pm,5:00am - 1:00pm,7:00am - 10:00am,7:00am - 10:00am,Tanisha Caraveo,"Gilbert Greene, D.O.",38.494332,-121.4383725,Sacramento County
114,-117.217134,34.061832,115,"Aegis Treatment Centers, LLC", 36-13 ,,395M,"1889 W. Redlands Blvd, Bldg. 9",Redlands,CA,92373,(909) 501-5167,225,5:00am - 1:30pm,5:00am - 9:00am; 10:00am - 12:30pm,6:00am - 10:00am,6:00am - 10:00am,Christine Loupe,"Barry Solof, M.D.",34.061832,-117.217134,San Bernardino County
115,-117.1584945,32.776587,116,"San Diego Health Alliance, Inc.", 37-15 ,Fashion Valley Clinic,177M,7545 Metropolitan Drive,San Diego,CA,92108,(619) 718-9890,750,5:30am - 2:00pm; Wed 5:30am - 12:00pm,5:30am - 1:00pm; Wed 5:30am - 12:00pm,7:00am - 10:00am; Closed Sunday,7:00am - 10:00am; Closed Sunday,Karissa Shephard,"Kevin Feig, M.D.",32.77687835,-117.1585697,San Diego County
116,-116.962704,32.797089,117,"San Diego Health Alliance, Inc.", 37-09 ,El Cajon Treatment Center,163M,234 North Magnolia Avenue,El Cajon,CA,92020,(619) 579-8373,450,5:30am - 2:00pm; Wed 5:30am - 12:00pm,5:30am - 1:00pm; Wed 5:30am - 12:00pm,7:00am - 10:00am; Closed Sunday,7:00am - 10:00am; Closed Sunday,Alycia Cardona,"Kevin Feig, M.D.",32.797089,-116.962704,San Diego County
117,-117.0705645,33.126534,118,"Mission Treatment Services, Inc.", 37-17 ,,347M,161 N. Date Street,Escondido,CA,92025,(760) 745-7786,300,5:30am - 2:00pm; Wed 5:30am - 12:00pm,5:30am - 1:00pm; Wed 5:30am - 12:00pm,7:00am - 10:00am; Closed Sunday,7:00am - 10:00am; Closed Sunday,Joshua Palmer,"Kevin Feig, M.D.",33.12664154,-117.0703232,San Diego County
118,-117.067941,32.611887,119,"San Diego Treatment Services, LLC", 37-16 ,Third Avenue Clinic,175M,1155 Third Avenue,Chula Vista,CA,91911,(619) 498-8260,480,5:30am - 2:00pm; Wed 5:30am - 12:00pm,5:30am - 1:00pm; Wed 5:30am - 12:00pm,7:00am - 10:00am; Closed Sunday,7:00am - 10:00am; Closed Sunday,Stefanie Salmond,"Kevin Feig, M.D.",32.611887,-117.067941,San Diego County
119,-117.349776,34.465023,120,"Aegis Treatment Centers, LLC", 36-12 ,,295M,"11776 Mariposa Road, Suites 101, 103 & 104",Hesperia,CA,92345,(760) 956-2462,555,5:00am - 3:00pm,5:00am - 2:30pm,6:00am - 10:00am,6:00am - 10:00am,Susan Ortega,"Marc Forrest, M.D.",34.465023,-117.349776,San Bernardino County
120,-117.1945575,33.151131,121,San Diego Health Alliance, 37-14 ,Capalina Clinic,176M,1560 Capalina Road,San Marcos,CA,92069,(760) 744-2104,475,5:30am - 2:00pm; Wed 5:30am - 12:00pm,5:30am - 1:00pm; Wed 5:30am - 12:00pm,7:00am - 10:00am; Closed Sunday,7:00am - 10:00am; Closed Sunday,Alycia Cardona,"Kevin Feig, M.D.",33.15089044,-117.1946415,San Diego County
121,-117.137043,32.832288,122,"Mission Treatment Services, Inc.", 37-18 ,Mission San Diego - Clairemont Mesa,355M,"8898 Clairemont Mesa Boulevard, Suite H",San Diego,CA,92123,(858) 715-1211,280,5:30am - 2:00pm; Wed 5:30am - 12:00pm,5:30am - 1:00pm; Wed 5:30am - 12:00pm,7:00am - 10:00am; Sunday 7:00am - 9:00am,7:00am - 10:00am; Sunday 7:00am - 9:00am,Brian Ratajczak,"Kevin Feig, M.D.",32.8315115,-117.1370579,San Diego County
122,-117.082935,32.722506,123,El Dorado Community Service Center, 37-20 ,,365M,1733 Euclid Avenue,San Diego,CA,92105,(619) 263-0433,750,5:30am - 5:30pm,5:30am - 2:30pm,6:00am - 10:30am,6:00am - 10:30am,Matthew Madden,"Michael Yadegari, M.D.",32.722506,-117.082935,San Diego County
123,-122.4125145,37.779939,124,"Addiction Research and Treatment, Inc.", 38-04 ,BAART Programs Market,099M,1111 Market Street,San Francisco,CA,94103,(415) 863-3883,900,6:00am - 2:00pm,6:00am - 1:30pm,8:00am - 12:00pm,8:00am - 12:00pm,Kris Prasad,"Kyle Moore, M.D.",37.779939,-122.4125145,San Francisco County
124,-122.4125145,37.779939,125,"BAART Behavioral Health Services, Inc.", 38-04D ,BAART Programs Market,222M,1111 Market Street,San Francisco,CA,94103,(415) 863-3883,10,6:00am - 2:00pm,6:00am - 2:00pm,8:00am - 12:00pm,8:00am - 12:00pm,Kris Prasad,"Kyle Moore, M.D.",37.779939,-122.4125145,San Francisco County
125,-117.289485,33.18732,126,"SOAP MAT, LLC", 37-21 ,,370M,"3230 Waring Court, Suite A1, A2 (GH), & A3(N)",Oceanside,CA,92056,(760) 305-7528,750,5:00am - 2:00pm,5:00am - 2:00pm,6:00am - 10:00am,6:00am - 10:00am,Marc Gonzalo,"P. Scott Ricke, M.D.",33.18732,-117.289485,San Diego County
126,-122.416299,37.782216,127,"Addiction Research and Treatment, Inc.", 38-05 ,BAART Programs Turk,100M,433 Turk Street,San Francisco,CA,94102,(415) 928-7800,850,6:00am-3:00pm,6:00am-2:30pm ,8:00am - 12:00pm,8:00am - 12:00pm,Michael Taylor,"Kyle Moore, M.D.",37.7824667,-122.4163283,San Francisco County
127,-122.416299,37.782216,128,"BAART Behavioral Health Services, Inc.", 38-05D ,BAART Programs Turk,220M,433 Turk Street,San Francisco,CA,94102,(415) 928-7800,10,7:00am - 3:00pm,"7:00am-10:45am; 12:00-2:30pm; Wed 7:00am-10:45am, 12:00pm-1:00pm",7:45am - 12:15pm,8:00am - 12:00pm,Michael Taylor,"Kyle Moore, M.D.",37.7824667,-122.4163283,San Francisco County
128,-122.3936413,37.7250358,129,Bay View-Hunter's Point Foundation for Comm. Improvement, 38-06 ,,118M,1625 Carroll Avenue,San Francisco,CA,94124,(415) 822-8200,400,6:00am - 2:00pm,6:15am - 11:00am ,7:00am - 11:00am,7:00am - 10:00am,Terry Mitchell,"Catherine Olson, M.D.",37.7250358,-122.3936413,City and County of San Francisco
129,-122.4143325,37.781919,130,San Francisco County Department of Public Health, 38-07A ,Tom Waddell Health Center,098M,230 Golden Gate Avenue,San Francisco,CA,94102,(415) 355-7400,40,8:30am - 5:00pm,,,,"Hasija Sisic, R.N.","Brad Shapiro, M.D.",37.78183879,-122.4143218,San Francisco County
130,-117.3574161,33.19456681,131,"Mission Treatment Services, Inc.", 37-22 ,Mission Oceanside,382M,"1905 Apple Street, Suites 2, 3, 4, 5, & 6",Oceanside,CA,92054,(760) 547-1280,200,5:30am - 1:30pm; Wed 5:30am - 12:00pm,5:30am - 10:00am; 10:30am - 1:30pm; Wed 5:30am - 12:00pm,7:00am - 10:00am,7:00am - 10:00am,Rosemary Pyper,"Kevin Feig, M.D.",33.19456681,-117.3574161,San Diego County
131,-122.398929,37.75401,132,San Francisco County Department of Public Health, 38-07B ,Potrero Hill Health Center,098M,1050 Wisconsin Street,San Francisco,CA,94107,(415) 648-3022,25,8:30am - 5:30pm,,,,"Hasija Sisic, R.N.","Brad Shapiro, M.D.",37.75401,-122.398929,San Francisco County
132,-122.4058185,37.756332,133,San Francisco County Department of Public Health, 38-07D ,San Francisco General Hospital Pharmacy,098M,1001 Potrero Avenue,San Francisco,CA,94110,(415) 206-8107,45,9:00am - 8:00pm,8:00am - 10:30am,9:00am - 1:00pm; Closed Sunday,8:00am - 10:30am; Closed Sunday,"Hasija Sisic, R.N.","Brad Shapiro, M.D.",37.756332,-122.4058185,San Francisco County
133,-117.087264,32.757075,134,ARMT Medical Specialist, 37-19 ,,356M,"4974 El Cajon Boulevard, Suites A & H",San Diego,CA,92115,(619) 286-4600,300,5:30am - 1:00pm,5:30am - 1:00pm,7:15am - 10:15am,7:15am - 10:15am,Chris O'Rourke,"Philip Milgram, M.D.",32.75677124,-117.0872228,San Diego County
134,-122.4058185,37.756332,135,San Francisco County Department of Public Health, 38-07G ,Positive Health Program,098M,"1001 Potrero Avenue, Building 80, 6th Floor",San Francisco,CA,94110,(415) 206-2488,10,8:00am - 5:00pm,,,,"Hasija Sisic, R.N.","Brad Shapiro, M.D.",37.756332,-122.4058185,San Francisco County
135,-122.3910945,37.73628,136,San Francisco County Department of Public Health, 38-07M ,Mobile Narcotic Treatment,098M,1676 Newcomb Avenue,San Francisco,CA,94124,(415) 206-8412,200,6:30am - 3:00pm,7am - 9:00am; 10:30am - 12:30pm,,,"Hasija Sisic, R.N.","Brad Shapiro, M.D.",37.73605972,-122.3912149,San Francisco County
136,-122.404869,37.773846,137,Fort Help LLC, 38-21 ,,092M,915 Bryant Street,San Francisco,CA,94103,(415) 777-9953,350,6:00am - 11:00am; 11:30am - 2:30pm,6:00am - 11:00am; 11:30am - 1:30pm,8:15am - 11:15am,8:15am - 11:15am,Caitlyn Potter,"Michael Yadegari, M.D.",37.773846,-122.404869,San Francisco County
137,-122.4168165,37.748871,138,Fort Help Mission Inc., 38-22 ,,364M,1101 Capp Street,San Francisco,CA,94110,(415) 821-1427,200,6:00am - 2:30pm,6:15am - 11:00am; 11:30am - 1:30pm,7:00am - 10:00am,7:00am - 10:00am,Marjorie Cozzie,"Michael Yadegari, M.D.",37.7488736,-122.417024,San Francisco County
138,-122.4144135,37.774458,139,San Francisco County Department of Public Health, 38-07F ,Community Behavioral Health Services Pharmacy,098M,"1380 Howard Street, Room # 130",San Francisco,CA,94103,(415) 255-3659,30,9:00am - 4:30pm,9:00am - 4:30pm,,,"Hasija Sisic, R.N.","Brad Shapiro, M.D.",37.774458,-122.4144135,San Francisco County
139,-122.4360585,37.782333,140,Westside Community Mental Health Center, 38-80 ,,064M,1301 Pierce Street,San Francisco,CA,94115,(415) 563-8200,350,6:00am - 2:00pm,6:15am - 11:00am; 11:30am - 1:45pm,7:00am - 11:00am,7:00am - 11:00am,Lisa Wood,"Frank Staggers, M.D.",37.7823615,-122.4359174,San Francisco County
140,-122.4056655,37.756161,141,San Francisco County Department of Public Health, 38-07 ,Opiate Treatment Outpatient Program,098M,"1001 Potrero Avenue, Ward 93 / Ward 95",San Francisco,CA,94110,(415) 206-8412,630,7:30am - 11:00am; 12:30pm - 2:00pm ,7:30am - 11:00am; 12:30pm - 2:00pm ,7:30am - 2:00pm,7:30am - 11:00am; 12:30pm - 2pm,"Hasija Sisic, R.N.","Brad Shapiro, M.D.",37.756161,-122.4056655,San Francisco County
141,-121.2847785,37.933074,142,"Aegis Treatment Centers, LLC", 39-12 ,Healthy Connections 5th Street Medical Clinic,358M,1839 S. El Dorado Street,Stockton,CA,95206,(209)463-0872,400,5:00am - 1:30pm,5:00am - 1:00pm,7:00am - 12:00pm; Closed Sunday,7:00am - 11:00am; Closed Sunday,Victoria Beck,"Robert Hamilton, M.D.",37.933074,-121.2847785,San Joaquin County
142,-121.2927705,37.963566,143,"MedMark Treatment Centers - Stockton, Inc.", 39-07 ,,349M,"1107 - 1111 N. El Dorado Street & 33 E. Magnolia Street # 3, 5",Stockton,CA,95202,(209) 938-0228,810,5:00am - 1:30pm,5:00am - 1:00pm,7:00am - 11:00am,7:00am - 11:00am,Terese Penn,"Gilbert Greene, D.O.",37.963566,-121.2927705,San Joaquin County
143,-121.2899535,37.971864,144,"Aegis Treatment Centers, LLC", 39-11 ,Healthy Connections,348M,"1947 North California Street, Suite B and C",Stockton,CA,95204,(209) 463-0870,425,5:00am - 1:30pm,5:00am - 1:00pm,7:00am - 12:00pm; Closed Sunday,7:00am - 11:00am; Closed Sunday,Robert Mosqueda,"Robert Hamilton, M.D.",37.971864,-121.2899535,San Joaquin County
144,-121.321512,38.029122,145,"Aegis Treatment Centers, LLC", 39-09 ,,290M,"8626 Lower Sacramento Road, Suite 41",Stockton,CA,95210,(209) 478-2487,260,5:00am - 1:30pm,9:00am - 12:30 pm,7:00am - 11:00am,7:00am - 11:00am,Carla Kennedy,"Robert Hamilton, M.D.",38.029122,-121.321512,San Joaquin County
145,-121.4327565,37.744263,146,"Aegis Treatment Centers, LLC",39-14MU1,Healthy Connections,380M,"1450 Bessie Avenue, Suite B",Tracy,CA,95376,(209) 597-3090,100,6:00am - 11:00am,6:00am - 11:00am ,6:00am - 11:00am,6:00am - 11:00am,Moises Alcantara,"Michelle Rowe, D.O.",37.74426619,-121.4330223,San Joaquin County
146,-121.2889995,38.127582,147,"Aegis Treatment Centers, LLC", 39-13 ,Healthy Connections,374M,"541 S. Ham Lane, Suites A & B",Lodi,CA,95242,(209) 224-8940,350,5:00am - 6:30pm,5:00am-9:00am; 9:30am-1:30pm; 2:00pm-6:00pm,7:00am - 12:00pm,7:00am - 12:00pm,Michael Coronel,"Brian Talleur, M.D.",38.127582,-121.2889995,San Joaquin County
147,-120.6659205,35.483652,148,"Aegis Treatment Centers, LLC", 40-02 ,,253M,"6500 Morro Road, Suites C & D",Atascadero,CA,93422,(805) 461-5212,325,6:00am-7:30pm; Friday 6:00am-2:30pm ,6:00am-10:00am; 11:00am - 1:30pm; Mon - Thurs 3:00pm - 7:00pm,7:00am - 11:00am,7:00am - 11:00am,Anna Murray,"Kristopher D. Howalt, M.D.",35.48359123,-120.6656123,San Luis Obispo County
148,-122.15871,37.468341,149,"Addiction Research and Treatment, Inc.", 41-05 ,BAART Programs San Mateo,330M,"795 Willow Road, Building 332",Menlo Park,CA,94025,(650) 324-1470,600,6:00am - 2:30pm,6:00am - 1:30pm,7:00am - 10:30am,7:00am - 10:00am,Barbara Madeiros,"Nathaniel Lepp, M.D.",37.468341,-122.15871,San Mateo County
149,-120.43503,34.956783,150,"Aegis Treatment Centers, LLC", 42-07 ,,126M,115 East Fesler Street,Santa Maria,CA,93454,(805) 922-6597,570,6:00am-7:30pm; Friday 6:00am-2:30pm ,6:00am-10:00am; 11:00am - 1:30pm; 2:30pm - 7:00pm; Friday 6:00am - 1:30pm,6:00am - 2:30pm,6:00am - 10:00am; 11:00am - 1:30pm,Jeffrey Curtis,"Kristopher D. Howalt, M.D.",34.95649047,-120.43503,Santa Barbara County
150,-121.9380975,37.313172,151,Santa Clara County Department of Alcohol and Drug Services, 43-01 ,,070M,2425 Enborg Lane,San Jose,CA,95128,(408) 885-5400,650,6:00am - 4:00pm,6:00am - 12:30pm,,7:00am - 11:00am,"Mira Parwiz, MPA","Ali Alkoraishi, M.D.",37.313172,-121.9380975,Santa Clara County
151,-122.15871,37.468341,152,"BAART Behavioral Health Services, Inc.", 41-06 ,BAART Programs San Mateo,330M,"795 Willow Road, Building 332",Menlo Park,CA,94025,(650) 324-1470,100,6:00am - 2:30pm,6:00am - 1:30pm,7:00am - 10:30am,7:00am - 10:00am,Barbara Madeiros,"Nathaniel Lepp, M.D.",37.468341,-122.15871,San Mateo County
152,-121.906278,37.351593,153,Santa Clara County, 43-01M ,,188M,150 West Hedding Street,San Jose,CA,95110,(408) 885-5400,30,24 hours/day,24 hours/day,24 hours/day,24 hours/day,"Mira Parwiz, MPA","Ali Alkoraishi, M.D.",37.35188477,-121.9064238,Santa Clara County
153,-121.6054841,37.07394276,154,Santa Clara County Department of Alcohol and Drug Services, 43-05 ,South County Clinic,072M,90 Highland Avenue,San Martin,CA,95046,(408) 852-2420,150,6:00am - 2:30pm,6:00am - 11:00am ,,7:00am - 9:00am,"Mira Parwiz, MPA","Ali Alkoraishi, M.D.",37.07394276,-121.6054841,Santa Clara County
154,-121.2299685,37.799451,155,"Aegis Treatment Centers, LLC", 39-14 ,Healthy Connections,380M,"955 W. Center Street Suites 1, 12A, 12B & 14",Manteca,CA,95337,(209) 239-9600,415,5:00am - 1:30pm,5:00am - 1:00pm,8:00am - 11:00am; Closed Sunday,8:00am - 11:00am; Closed Sunday,Moises Alcantara,"Michelle Rowe, D.O.",37.79917138,-121.2299736,San Joaquin County
155,-122.01669,36.99189,156,Janus of Santa Cruz, 44-05 ,Janus Community Clinic,350M,"1000-A, 1010-C Emeline Avenue",Santa Cruz,CA,95060,(831) 425-0112,545,5:30am - 2:00pm,5:30am - 12:30 pm,6:30am - 11:00am,6:30am - 11:00am,Amanda Engeldrum Magana,"William Morris, M.D.",36.99152773,-122.0176463,Santa Cruz County
156,-121.7709135,36.918684,157,Janus of Santa Cruz, 44-06 ,Janus South County,375M,"284 Pennsylvania Drive, Suite 1 & 2",Watsonville,CA,95076,(831) 319-4200,230,5:00am - 1:00pm,5:00am - 10:00am,6:00am - 9:30am,6:00am - 9:00am,Amanda Engeldrum Magana,"Willian Morris, M.D.",36.91846079,-121.7713972,Santa Cruz County
157,-119.7607005,34.439742,158,"Aegis Treatment Centers, LLC", 42-08 ,,311M,"4129 State Street, Suites B, D, E, & F",Santa Barbara,CA,93110,(805) 964-4795,380,6:00am - 2:30pm,6:00am - 10:00am; 11:00am - 1:30pm,6:00am - 9:00am; Closed Sunday,6:00am - 9:00am; Closed Sunday,Kristin Crosby,"Sarah Nasir, D.O.",34.44047449,-119.7607005,Santa Barbara County
158,-122.048289,38.24793,159,"MedMark Treatment Centers - Fairfield, Inc.", 48-03 ,MedMark Treatment Centers Fairfield,334M,1143 Missouri Street,Fairfield,CA,94533,(707) 435-9911,500,5:00am - 1:30pm,5:00am - 10:30am; 11:00am - 1:00pm,7:00am - 10:30am,7:00am - 10:30am,Rajwant Kaur,"Christine Kinnevey, M.D.",38.24793,-122.048289,Solano County
159,-121.848336,37.359693,160,Santa Clara County Department of Alcohol and Drug Services, 43-07 ,Alexian Health Clinic,369M,"2101 Alexian Drive, Suites A & B",San Jose,CA,95116,(408) 885-5400,250,6:00am - 2:30pm,6:00am - 12:30pm ,,7:00am - 9:00am,"Mira Parwiz, MPA","Ali Alkoraishi, M.D.",37.3593972,-121.848122,Santa Clara County
160,-122.7245175,38.463687,161,Drug Abuse Alternatives Center, 49-03 ,Redwood Empire Addiction Program,278M,"2403 Professional Drive, Suite 103",Santa Rosa,CA,95403,(707) 526-2999,200,6:00am - 2:30pm,6:00am - 10:00am ,6:0am - 2:30pm,7:00am - 10:00am,Susan Hertel,"Russell Sandberg, M.D.",38.463687,-122.7245175,Sonoma County
161,-122.724333,38.460483,162,"Santa Rosa Treatment Program, Inc.", 49-02 ,,228M,625 Steele Lane,Santa Rosa,CA,95403,(707) 576-0818,450,6:00am - 2:00pm,6:00am - 11:00am,7:00am - 11:00am,7:00am - 10:00am,Lee Tillman,"Daniel S. Calder, M.D.",38.460483,-122.724333,Sonoma County
162,-120.9822345,37.646019,163,Stanislaus County, 50-01 ,Genesis Narcotic Treatment Program,086M,"800 Scenic Drive, Building 4",Modesto,CA,95350,(209) 525-6146,260,6:30am - 3:00pm; Fri 6:30am-12:30pm,6:30am - 10:30am,8:00am - 10:45am,8:00am - 10:45am,Tabitha Sprague,"James Kraus, M.D.",37.64720454,-120.9822345,Stanislaus County
163,-122.3503695,40.563009,164,"Aegis Treatment Centers, LLC ", 45-01 ,,401M,"1133, 1141, 1145, 1147, & 1137 Hartnell Ave, Suites D & E",Redding,CA,96002,(530) 222-7213,625,5:00am - 1:30pm,5:00am - 12:30 pm,6:00am - 10:00am,6:00am - 10:00am,William Napp,"Michael Waring, M.D.",40.563009,-122.3503695,Shasta County
164,-122.249754,38.124855,165,"Successful Alternatives For Addiction & Counseling Services, Inc.", 48-04 ,MedMark Treatment Centers - Vallejo,337M,"1628 N. Broadway Street, Suites A & B",Vallejo,CA,94590,(707) 649-8300,380,5:00am - 1:30pm,5am - 9:00am; 9:30am - 1:00pm,7:00am - 10:30am,7:00am - 10:30am,Gabrielle Bodin,"Christine Kinnevey, M.D.",38.12473573,-122.2500005,Solano County
165,-121.588209,39.137607,166,"Aegis Treatment Centers, LLC", 51-05 ,,289M,"201 D Street, Suite G",Marysville,CA,95901,(530) 742-7747,480,5:00am - 1:30pm,5:00am - 9:00am; 10:00am - 12:30pm,7:00am - 9:00am,7:00am - 9:00am,Vida Reischner,"Michael Waring, M.D.",39.13758177,-121.5885641,Yuba County
166,-120.938193,37.605087,167,"Aegis Treatment Centers, LLC", 50-04,,408M,"1768 Mitchell Road, Suite 301",Ceres,CA,95307,(209)353-4838,300,5:30am - 2:00pm,5:30am - 1:30pm,7:00am - 11:00am,7:00am - 11:00am,Dyana Inthavong,"Robert Southmayd, M.D.",37.605087,-120.9387115,Stanislaus County
167,-121.046391,39.228903,168,"Aegis Treatment Centers, LLC", 51-05MU1 ,,289M,109 Margaret Lane,Grass Valley,CA,95945,(530) 863-8798,155,5:00am - 1:30pm,5:00am - 9:00am; 10:00am - 12:30pm,7:00am - 9:00am,7:00am - 9:00am,Vida Reischner,"Michael Waring, M.D.",39.22904273,-121.0461349,Nevada County
168,-119.34072,36.196308,169,Kings View, 54-01 ,,097M,559 East Bardsley Avenue,Tulare,CA,93274,(559) 688-7531,230,5:30am - 2:00pm,5:30 am - 9:50am; 10:30am - 1:00pm ,,7:00am - 10:0am,Cindy Gonzales,"Harish Shah, M.D.",36.19657052,-119.34072,Tulare County
169,-121.5615233,39.12742289,170,"American Addiction Treatment Services, Inc.", 51-04 ,,338M,1496-1498 North Beale Road,Marysville,CA,95901,(530) 749-8640,500,5:00am - 1:30pm,5:00am - 1:00pm,6:00am - 9:00am,6:00am - 9:00am,Douglas Hill,"Catherine Sanders & Michael Yadegari, M.D.",39.12742288,-121.5615233,Yuba County
170,-120.9942585,37.661481,171,"Aegis Treatment Centers, LLC", 50-03 ,,299M,"1235 McHenry Avenue, Suites A & B",Modesto,CA,95350,(209) 527-4597,1000,5:30 - 7:00pm,5:30am - 6:00pm,7:00am - 11:00am; Closed Sunday,7:00am - 11:00am; Closed Sunday,Vanessa Brown,"Robert Southmayd, M.D.",37.66148762,-120.9939172,Stanislaus County
171,-119.2913145,36.315774,172,BAART Behavioral Health Services, 54-02 ,BAART Programs Visalia,344M,1646 South Court Street,Visalia,CA,93277,(559) 625-8890,1000,5:30am - 2:00pm,5:30am - 1:30 pm,6:00am - 10:00am,6:00am - 10:00am,Kimberly Andersen,"Kyle Moore, M.D.",36.315774,-119.2913145,Tulare County
172,-119.2913145,36.315774,173,"BAART Behavioral Health Services, Inc.", 54-02D ,BAART Programs Visalia,344M,1646 South Court Street,Visalia,CA,93277,(559) 625-8890,75,5:30am - 2pm,5:30am - 1:30 pm,6:00am - 10:00am,6:00am - 10:00am,Kimberly Andersen,"Kyle Moore, M.D.",36.315774,-119.2913145,Tulare County
173,-119.0146005,36.068661,174,"Addiction Research and Treatment, Inc.", 54-03 ,BAART Programs Porterville,388M,89 E Mill Avenue,"Porterville, CA",CA,93257,(559) 853-6222,200,5:30am - 10:00am; 10:30am - 2:00pm,5:30am - 10:00am; 10:30am - 1:30pm,6:00am - 9:00am,6:00am - 9:00am,Brooke Porter,"Kyle Moore, M.D.",36.06878354,-119.0145914,Tulare County
174,-119.286171,34.278498,175,Western Pacific Med-Corp., 56-08 ,,323M,955 East Thompson Boulevard,Ventura,CA,93001,(805) 641-9100,450,4:30am - 1:30pm,4:30am - 12:30pm,6:00am - 9:00am,6:00am - 9:00am,Ruben Ortiz,"Richard Park, M.D.",34.27831553,-119.2861674,Ventura County
175,-119.066472,34.352217,176,"Aegis Treatment Centers, LLC", 56-11 ,,298M,625 E Main Street,Santa Paula,CA,93060,(805) 525-4669,200,5:00am - 1:30pm,5:00am - 9:00am; 10:00am - 12:30pm ,6:00am - 9:00am; Closed Sunday,6:00am - 9:00am; Closed Sunday,Tamara Lemalu,"Shane Joseph, M.D.",34.352217,-119.066472,Ventura County
176,-119.0146005,36.068661,177,"BAART Behavioral Health Services, Inc.", 54-03D ,BAART Programs Porterville,388M,89 E Mill Avenue,Porterville,CA,93257,(559) 853-6222,25,6:00am - 1:30pm,6:00am-10am; 11:00am-1:30pm; Th 6:00-10:00am,6:00am - 9:00am,6:00am - 9:00am,Brooke Porter,"Kyle Moore, M.D.",36.06878354,-119.0145914,Tulare County
177,-118.7860545,34.270524,178,"Aegis Treatment Centers, LLC", 56-10 ,,236M,"660 East Los Angeles Avenue, Suite B2",Simi Valley,CA,93065,(805) 522-1844,305,5:00am - 1:30pm,5:00am - 9:00am; 10:00am - 12:30pm ,5:00am - 9:00am; Closed Sunday,5:00am - 9:00am; Closed Sunday,Chelsea Pappas,"Brian Harris, M.D.",34.270524,-118.7860545,Ventura County
178,-121.5778365,38.570688,179,"C.O.R.E. Medical Clinic, Inc.", 57-01 ,,398M,3990 Industrial Boulevard,West Sacramento,CA,95691,(916) 796-0020,200,6:00am - 2:30pm,6:15am - 1:30pm,7:00am - 10:00am,7:15am - 10:00am,"Garrett Stenson, MSW","Christine Bell, M.D.",38.57024091,-121.5778248,Yolo County
179,-119.224638,34.277085,180,"Aegis Treatment Centers, LLC", 56-12 ,,386M,5225 Telegraph Road,Ventura,CA,93003,(805) 765-6495,285,5:00am - 1:30pm,5:00am - 9:00am; 10:00am - 12:30pm ,6:00am - 9:00am; Closed Sunday,6:00am - 9:00am; Closed Sunday,Anne Calica,"Shane Joseph, M.D.",34.277085,-119.224638,Ventura County
180,-119.1777075,34.179588,181,"Aegis Treatment Centers, LLC", 56-09 ,,174M,"2055 Saviers Road, Suites 9, 10, 11,& 12 & 2045 Saviers Road",Oxnard,CA,93033,(805) 483-2253,625,5:00am - 3:00pm,5:00am - 2:00pm,5:00am - 9:00am; Closed Sunday,5:00am - 9:00am; Closed Sunday,Maria Meza,"Brian Harris, M.D.",34.179588,-119.1777075,Ventura County